OBJECT_NAME,OBJECT_ID,EPOCH,MEAN_MOTION,ECCENTRICITY,INCLINATION,RA_OF_ASC_NODE,ARG_OF_PERICENTER,MEAN_ANOMALY,EPHEMERIS_TYPE,CLASSIFICATION_TYPE,NORAD_CAT_ID,ELEMENT_SET_NO,REV_AT_EPOCH,BSTAR,MEAN_MOTION_DOT,MEAN_MOTION_DDOT
SKYTERRA 1,2010-061A,2026-07-01T16:57:41.267232,1.00270658,.00023909,5.1543,50.8288,36.0483,345.9963,0,U,37218,999,5734,0,-.11E-5,0
O/OREOS (USA 219),2010-062C,2026-07-01T07:50:08.222784,14.93804016,.00131662,71.9707,48.3104,32.9496,327.2493,0,U,37224,999,11875,.25407922E-3,.2639E-4,0
FASTSAT-HSV01 (USA 220),2010-062D,2026-07-01T22:39:58.159296,14.82153600,.00145427,71.9719,126.8975,101.9504,258.3291,0,U,37225,999,11631,.87197495E-4,.638E-5,0
HYLAS 1,2010-065A,2026-06-30T07:17:51.718848,1.00272596,.00010436,5.6751,72.8623,340.0885,348.6881,0,U,37237,999,701,0,.96E-6,0
INTELSAT 17 (IS-17),2010-065B,2026-07-01T22:54:21.718656,1.00270653,.00026937,0.0295,84.4606,37.3725,207.7338,0,U,37238,999,5339,0,0,0
BEIDOU-2 IGSO-2,2010-068A,2026-06-30T16:18:05.669856,1.00279341,.00565661,47.5224,271.6646,213.8845,145.9362,0,U,37256,999,5693,0,-.187E-5,0
EUTELSAT KA-SAT 9A,2010-069A,2026-07-01T20:55:38.747136,1.00267490,.00041405,0.0607,12.6745,127.5362,102.6028,0,U,37258,999,4415,0,.71E-6,0
HISPASAT 30W-5,2010-070A,2026-07-01T17:18:31.768992,1.00271825,.00058435,0.0388,107.9174,5.4937,35.9968,0,U,37264,999,5333,0,-.205E-5,0
KOREASAT 6,2010-070B,2026-07-01T21:37:58.311840,1.00272246,.00026885,0.0144,51.7696,59.8204,292.7361,0,U,37265,999,5691,0,-.101E-5,0
BEIDOU-2 IGSO-3,2011-013A,2026-07-01T12:49:50.551968,1.00264921,.00352253,62.4273,40.0161,184.0407,355.1634,0,U,37384,999,5580,0,-.159E-5,0
RESOURCESAT-2,2011-015A,2026-07-01T22:33:18.294048,14.21603390,.00107935,98.7639,250.2794,209.3896,150.6675,0,U,37387,999,78827,.64777746E-4,.98E-6,0
YOUTHSAT,2011-015B,2026-07-01T21:27:08.062848,14.25636174,.00134126,98.3691,156.2853,301.9045,112.8510,0,U,37388,999,78973,.93567214E-4,.18E-5,0
X-SAT,2011-015C,2026-07-01T21:33:43.701408,14.25210748,.00130125,98.3514,159.2215,303.5793,56.4144,0,U,37389,999,78977,.68682964E-4,.12E-5,0
INTELSAT 28 (IS-28),2011-016A,2026-07-01T19:00:42.870240,1.00270148,.00039925,1.8419,82.4554,18.1963,72.6195,0,U,37392,999,5343,0,-.216E-5,0
YAHSAT 1A,2011-016B,2026-07-01T21:07:19.774272,1.00269812,.00036576,0.0190,38.5388,77.7658,172.9602,0,U,37393,999,4255,0,0,0
SBIRS GEO-1 (USA 230),2011-019A,2026-07-01T19:31:38.808768,1.00272281,.00019255,4.5677,53.1152,39.6054,171.8472,0,U,37481,999,5554,0,.108E-5,0
TELSTAR 14R,2011-021A,2026-07-01T22:17:00.913056,1.00271227,.00023041,0.0535,82.0236,354.0345,115.1815,0,U,37602,999,5598,0,-.269E-5,0
GSAT-8,2011-022A,2026-07-01T21:08:04.702272,1.00272728,.00018261,2.1670,81.6550,173.9326,36.4577,0,U,37605,999,5336,0,.93E-6,0
ST-2,2011-022B,2026-07-01T21:42:46.702944,1.00272214,.0001769,0.0182,44.1291,65.3380,224.2047,0,U,37606,999,5542,0,-.201E-5,0
ZHONGXING-10,2011-026A,2026-07-01T22:59:26.458368,1.00272130,.00038086,1.0839,84.0505,10.6770,255.6722,0,U,37677,999,5514,0,-.179E-5,0
SJ-11-03,2011-030A,2026-07-01T23:15:44.656704,14.64350527,.00082828,97.9344,146.4774,357.4871,95.3832,0,U,37730,999,79927,.10506309E-3,.509E-5,0
GLOBALSTAR M083,2011-033A,2026-07-01T19:23:46.967136,12.62263793,.00009458,51.9877,327.9956,89.4379,75.7875,0,U,37739,999,69479,.13866114E-3,-.79E-6,0
GLOBALSTAR M088,2011-033B,2026-07-01T20:42:24.227424,12.62269178,.00003548,52.0195,234.2940,147.5976,24.3785,0,U,37740,999,69034,.14295451E-3,-.78E-6,0
GLOBALSTAR M091,2011-033C,2026-07-01T19:07:04.499040,12.62264193,.00000719,51.9966,197.4380,342.2921,189.5041,0,U,37741,999,69112,-.14593055E-4,-.106E-5,0
GLOBALSTAR M085,2011-033D,2026-07-01T21:51:06.054336,12.62264203,.00004605,52.0105,148.3949,9.6271,20.0834,0,U,37742,999,69165,-.6829444E-4,-.116E-5,0
GLOBALSTAR M081,2011-033E,2026-07-01T20:30:15.071040,12.62265300,.00003594,51.9936,150.9854,37.8691,336.3305,0,U,37743,999,69179,-.6957161E-4,-.116E-5,0
GLOBALSTAR M089,2011-033F,2026-07-01T19:39:47.400768,12.62267404,.00005572,51.9926,105.2484,79.5021,316.3719,0,U,37744,999,69263,.23558657E-4,-.1E-5,0
SES-3,2011-035A,2026-07-01T22:05:39.503040,1.00272349,.00024106,1.3628,82.9421,8.8240,56.6204,0,U,37748,999,5474,0,-.92E-6,0
KAZSAT-2,2011-035B,2026-07-01T21:40:45.840576,1.00273613,.00017811,0.0119,75.3648,77.8429,178.4355,0,U,37749,999,5354,0,-.188E-5,0
NAVSTAR 66 (USA 232),2011-036A,2026-07-01T19:51:01.364832,2.00562268,.01418112,56.5578,331.4505,62.7391,299.8175,0,U,37753,999,10957,0,-.8E-6,0
BEIDOU-2 IGSO-4,2011-038A,2026-06-30T22:39:21.613824,1.00282911,.01596501,54.6040,165.5504,231.3791,315.8344,0,U,37763,999,5478,0,.17E-6,0
